OBJECT_NAME,OBJECT_ID,EPOCH,MEAN_MOTION,ECCENTRICITY,INCLINATION,RA_OF_ASC_NODE,ARG_OF_PERICENTER,MEAN_ANOMALY,EPHEMERIS_TYPE,CLASSIFICATION_TYPE,NORAD_CAT_ID,ELEMENT_SET_NO,REV_AT_EPOCH,BSTAR,MEAN_MOTION_DOT,MEAN_MOTION_DDOT
COSMOS 2251 DEB,1993-036AVV,2026-03-01T01:11:56.999328,14.75697117,.00593262,74.0083,85.0523,201.7003,189.0511,0,U,35979,999,89788,.67098649E-3,.4689E-4,0
COSMOS 2251 DEB,1993-036AVW,2026-02-28T10:42:06.528960,14.60470933,.00508775,73.9149,333.2892,91.4604,269.2390,0,U,35980,999,62620,.12337369E-2,.6066E-4,0
COSMOS 2251 DEB,1993-036AWF,2026-02-18T23:07:51.367872,14.37198036,.00231521,74.0397,158.3679,229.5119,130.4018,0,U,35989,999,88159,.17764019E-3,.504E-5,0
COSMOS 2251 DEB,1993-036AWK,2026-02-23T01:17:53.375136,14.65956500,.00301741,74.0143,193.3750,358.7265,1.3821,0,U,35993,999,61502,.8188738E-3,.4484E-4,0
COSMOS 2251 DEB,1993-036AWN,2026-02-20T02:53:38.347008,15.10863655,.00837943,74.0150,320.0081,31.3164,329.2979,0,U,35996,999,73373,.53002099E-3,.9561E-4,0
COSMOS 2251 DEB,1993-036AWP,2026-03-01T07:15:09.578016,14.51831633,.0012736,74.0428,39.4552,99.9866,260.2733,0,U,35997,999,72024,.8206E-3,.328E-4,0
COSMOS 2251 DEB,1993-036AWS,2026-02-28T07:31:38.439840,14.94728509,.00272918,73.9908,290.6282,25.1174,335.1330,0,U,36000,999,61327,.22038776E-2,.24159E-3,0
COSMOS 2251 DEB,1993-036AXG,2026-02-27T23:26:14.706240,14.72151770,.00470722,73.7622,266.5973,267.5245,92.0536,0,U,36045,999,9524,.14875344E-2,.9513E-4,0
COSMOS 2251 DEB,1993-036AXH,2026-02-23T23:42:49.311072,14.65767134,.00585152,74.0112,135.3155,264.2313,276.4308,0,U,36046,999,65076,.43696795E-3,.241E-4,0
COSMOS 2251 DEB,1993-036AXJ,2026-02-28T17:59:37.669920,15.01641611,.00060593,74.0332,175.8854,249.0944,110.9596,0,U,36047,999,67108,.28218122E-2,.36811E-3,0
COSMOS 2251 DEB,1993-036AXM,2026-02-24T07:26:43.549728,15.02512576,.0082699,74.0313,44.0133,104.5130,256.5250,0,U,36050,999,68139,.5800663E-3,.8268E-4,0
COSMOS 2251 DEB,1993-036AXQ,2026-02-28T12:53:27.850560,14.58485081,.00336457,73.8733,3.2559,292.6566,67.1041,0,U,36053,999,88578,.18080141E-2,.844E-4,0
COSMOS 2251 DEB,1993-036AXV,2026-02-23T18:59:03.910272,14.59148575,.00450136,74.0204,254.1806,7.4611,352.7214,0,U,36058,999,67176,.44276489E-3,.2085E-4,0
COSMOS 2251 DEB,1993-036AXX,2026-02-27T10:28:09.824448,14.42204024,.00149002,74.0275,92.3152,182.9374,177.1698,0,U,36060,999,86115,.28807032E-3,.924E-5,0
COSMOS 2251 DEB,1993-036AXY,2026-02-24T20:17:16.329696,14.33857823,.00393139,74.0213,224.0995,294.0818,65.6222,0,U,36061,999,66166,.27068121E-3,.734E-5,0
COSMOS 2251 DEB,1993-036AYL,2026-02-23T02:10:20.691264,14.35062261,.00262647,74.0320,189.9189,245.2819,114.5599,0,U,36073,999,71245,.24520798E-3,.676E-5,0
COSMOS 2251 DEB,1993-036AYM,2026-02-27T19:19:26.684544,14.44407527,.00452884,73.9909,196.7500,272.5538,87.0435,0,U,36074,999,87022,.10967757E-2,.3802E-4,0
COSMOS 2251 DEB,1993-036AYT,2026-02-28T20:35:24.459936,14.34279554,.0085181,74.0652,130.4003,141.8124,218.9105,0,U,36366,999,87408,.12109E-2,.3517E-4,0
COSMOS 2251 DEB,1993-036AYU,2026-02-09T22:36:16.665120,13.86656940,.0260465,74.1017,131.5377,191.0318,168.5033,0,U,36367,999,58350,.99798E-3,.1494E-4,0
COSMOS 2251 DEB,1993-036AYW,2026-02-14T09:28:09.672960,14.75269985,.00109607,74.0327,306.4274,3.0426,357.0812,0,U,36369,999,86860,.16390613E-2,.11093E-3,0
COSMOS 2251 DEB,1993-036AYY,2026-02-26T13:22:53.724864,14.72714315,.0006486,74.0146,13.9369,17.5795,342.5600,0,U,36371,999,72560,.22282E-2,.14222E-3,0
COSMOS 2251 DEB,1993-036AZG,2026-02-28T23:31:52.079232,14.36230008,.0047565,74.0136,162.9446,273.8752,206.2620,0,U,36379,999,65951,.27962E-3,.8E-5,0
COSMOS 2251 DEB,1993-036AZN,2026-02-28T21:05:01.675104,14.74637821,.0136878,73.9714,1.4822,158.4552,202.2461,0,U,36385,999,86253,.12675E-2,.9818E-4,0
COSMOS 2251 DEB,1993-036AZT,2026-02-24T22:09:40.278240,14.36981066,.0018984,74.0380,139.1041,216.5958,264.2372,0,U,36420,999,86102,.11767E-3,.323E-5,0
