COSMOS 2251 DEB         
1 35979U 93036AVV 26060.04996527  .00004689  00000+0  67099-3 0  9990
2 35979  74.0083  85.0523 0059326 201.7003 189.0511 14.75697117897881
COSMOS 2251 DEB         
1 35980U 93036AVW 26059.44590890  .00006066  00000+0  12337-2 0  9992
2 35980  73.9149 333.2892 0050877  91.4604 269.2390 14.60470933626205
COSMOS 2251 DEB         
1 35989U 93036AWF 26049.96378898  .00000504  00000+0  17764-3 0  9990
2 35989  74.0397 158.3679 0023152 229.5119 130.4018 14.37198036881597
COSMOS 2251 DEB         
1 35993U 93036AWK 26054.05408999  .00004484  00000+0  81887-3 0  9995
2 35993  74.0143 193.3750 0030174 358.7265   1.3821 14.65956500615029
COSMOS 2251 DEB         
1 35996U 93036AWN 26051.12058272  .00009561  00000+0  53002-3 0  9997
2 35996  74.0150 320.0081 0083794  31.3164 329.2979 15.10863655733738
COSMOS 2251 DEB         
1 35997U 93036AWP 26060.30219419  .00003280  00000+0  82060-3 0  9998
2 35997  74.0428  39.4552 0012736  99.9866 260.2733 14.51831633720247
COSMOS 2251 DEB         
1 36000U 93036AWS 26059.31363935  .00024159  00000+0  22039-2 0  9993
2 36000  73.9908 290.6282 0027291  25.1174 335.1330 14.94728509613273
COSMOS 2251 DEB         
1 36045U 93036AXG 26058.97655910  .00009513  00000+0  14875-2 0  9996
2 36045  73.7622 266.5973 0047072 267.5245  92.0536 14.72151770 95246
COSMOS 2251 DEB         
1 36046U 93036AXH 26054.98807073  .00002410  00000+0  43697-3 0  9997
2 36046  74.0112 135.3155 0058515 264.2313 276.4308 14.65767134650762
COSMOS 2251 DEB         
1 36047U 93036AXJ 26059.74974155  .00036811  00000+0  28218-2 0  9996
2 36047  74.0332 175.8854 0006059 249.0944 110.9596 15.01641611671080
COSMOS 2251 DEB         
1 36050U 93036AXM 26055.31022627  .00008268  00000+0  58007-3 0  9992
2 36050  74.0313  44.0133 0082699 104.5130 256.5250 15.02512576681393
COSMOS 2251 DEB         
1 36053U 93036AXQ 26059.53712790  .00008440  00000+0  18080-2 0  9998
2 36053  73.8733   3.2559 0033645 292.6566  67.1041 14.58485081885780
COSMOS 2251 DEB         
1 36058U 93036AXV 26054.79101748  .00002085  00000+0  44276-3 0  9997
2 36058  74.0204 254.1806 0045013   7.4611 352.7214 14.59148575671769
COSMOS 2251 DEB         
1 36060U 93036AXX 26058.43622482  .00000924  00000+0  28807-3 0  9990
2 36060  74.0275  92.3152 0014900 182.9374 177.1698 14.42204024861155
COSMOS 2251 DEB         
1 36061U 93036AXY 26055.84532789  .00000734  00000+0  27068-3 0  9990
2 36061  74.0213 224.0995 0039313 294.0818  65.6222 14.33857823661669
COSMOS 2251 DEB         
1 36073U 93036AYL 26054.09051726  .00000676  00000+0  24521-3 0  9992
2 36073  74.0320 189.9189 0026264 245.2819 114.5599 14.35062261712456
COSMOS 2251 DEB         
1 36074U 93036AYM 26058.80516996  .00003802  00000+0  10968-2 0  9994
2 36074  73.9909 196.7500 0045288 272.5538  87.0435 14.44407527870220
COSMOS 2251 DEB         
1 36366U 93036AYT 26059.85792199  .00003517  00000+0  12109-2 0  9997
2 36366  74.0652 130.4003 0085181 141.8124 218.9105 14.34279554874082
COSMOS 2251 DEB         
1 36367U 93036AYU 26040.94185955  .00001494  00000+0  99798-3 0  9996
2 36367  74.1017 131.5377 0260465 191.0318 168.5033 13.86656940583505
COSMOS 2251 DEB         
1 36369U 93036AYW 26045.39455640  .00011093  00000+0  16391-2 0  9996
2 36369  74.0327 306.4274 0010960   3.0426 357.0812 14.75269985868609
COSMOS 2251 DEB         
1 36371U 93036AYY 26057.55756626  .00014222  00000+0  22282-2 0  9991
2 36371  74.0146  13.9369 0006486  17.5795 342.5600 14.72714315725608
COSMOS 2251 DEB         
1 36379U 93036AZG 26059.98046388  .00000800  00000+0  27962-3 0  9993
2 36379  74.0136 162.9446 0047565 273.8752 206.2620 14.36230008659515
COSMOS 2251 DEB         
1 36385U 93036AZN 26059.87849161  .00009818  00000+0  12675-2 0  9990
2 36385  73.9714   1.4822 0136878 158.4552 202.2461 14.74637821862532
COSMOS 2251 DEB         
1 36420U 93036AZT 26055.92338285  .00000323  00000+0  11767-3 0  9996
2 36420  74.0380 139.1041 0018984 216.5958 264.2372 14.36981066861021
